NORAD_CAT_ID,OBJECT_NAME,OBJECT_TYPE,EPOCH,MEAN_MOTION,ECCENTRICITY,INCLINATION,RA_OF_ASC_NODE,ARG_OF_PERICENTER,MEAN_ANOMALY,BSTAR,MEAN_MOTION_DOT,MEAN_MOTION_DDOT,TLE_LINE0,TLE_LINE1,TLE_LINE2,SEMIMAJOR_AXIS,PERIOD,APOGEE,PERIGEE,DECAYED
55640.0,STARLINK-5069,PAYLOAD,2023-04-17 03:40:56,15.69923661,0.0002807,69.9998,345.7879,273.8592,86.2283,8.3523e-06,7.92e-06,0.0,0 STARLINK-5069,1 55640U 23021N   23107.15343371  .00000792  00000-0  83523-5 0  9992,2 55640  69.9998 345.7879 0002807 273.8592  86.2283 15.69923661 10017,6737.252,91.724,361.009,357.226,0.0
55640.0,STARLINK-5069,PAYLOAD,2023-04-17 22:01:57,15.69939548,0.0003516,70.0,343.6402,264.5172,95.5623,9.0654e-05,0.00010709,0.0,0 STARLINK-5069,1 55640U 23021N   23107.91802866  .00010709  00000-0  90654-4 0  9996,2 55640  70.0000 343.6402 0003516 264.5172  95.5623 15.69939548 10137,6737.207,91.723,361.441,356.703,0.0
55640.0,STARLINK-5069,PAYLOAD,2023-04-18 04:08:58,15.69934351,0.0003451,69.9991,342.9234,267.3883,92.6918,5.8335e-05,6.81e-05,0.0,0 STARLINK-5069,1 55640U 23021N   23108.17289682  .00006810  00000-0  58335-4 0  9998,2 55640  69.9991 342.9234 0003451 267.3883  92.6918 15.69934351 10172,6737.222,91.724,361.412,356.762,0.0
55640.0,STARLINK-5069,PAYLOAD,2023-04-18 17:54:44,15.69920755,0.0002969,70.0006,341.3099,261.6115,98.4744,-4.5696e-06,-7.62e-06,0.0,0 STARLINK-5069,1 55640U 23021N   23108.74635101 -.00000762  00000-0 -45696-5 0  9991,2 55640  70.0006 341.3099 0002969 261.6115  98.4744 15.69920755 10266,6737.261,91.724,361.126,357.125,0.0
55640.0,STARLINK-5069,PAYLOAD,2023-04-19 03:05:15,15.6991455,0.000303,70.0016,340.2374,273.4484,86.6365,-6.9529e-06,-1.048e-05,0.0,0 STARLINK-5069,1 55640U 23021N   23109.12865393 -.00001048  00000-0 -69529-5 0  9991,2 55640  70.0016 340.2374 0003030 273.4484  86.6365 15.69914550 10322,6737.278,91.725,361.185,357.102,0.0
55640.0,STARLINK-5069,PAYLOAD,2023-04-19 21:26:16,15.69936706,0.0003657,69.999,338.0857,266.1901,93.8876,6.3455e-05,7.428e-05,0.0,0 STARLINK-5069,1 55640U 23021N   23109.89324526  .00007428  00000-0  63455-4 0  9990,2 55640  69.9990 338.0857 0003657 266.1901  93.8876 15.69936706 10446,6737.215,91.723,361.544,356.616,0.0
55640.0,STARLINK-5069,PAYLOAD,2023-04-20 00:29:46,15.69937902,0.0003682,69.9989,337.7273,266.2753,93.8022,6.7262e-05,7.887e-05,0.0,0 STARLINK-5069,1 55640U 23021N   23110.02067763  .00007887  00000-0  67262-4 0  9993,2 55640  69.9989 337.7273 0003682 266.2753  93.8022 15.69937902 10167,6737.212,91.723,361.557,356.596,0.0
55640.0,STARLINK-5069,PAYLOAD,2023-04-20 18:50:49,15.69915319,0.0002752,70.0004,335.5781,269.7798,90.3082,7.8282e-06,7.29e-06,0.0,0 STARLINK-5069,1 55640U 23021N   23110.78529125  .00000729  00000-0  78282-5 0  9994,2 55640  70.0004 335.5781 0002752 269.7798  90.3082 15.69915319 10281,6737.276,91.725,360.995,357.287,0.0
55640.0,STARLINK-5069,PAYLOAD,2023-04-21 02:29:34,15.69935706,0.0003247,70.0005,334.6824,266.2272,93.8553,8.3666e-05,9.864e-05,0.0,0 STARLINK-5069,1 55640U 23021N   23111.10386781  .00009864  00000-0  83666-4 0  9990,2 55640  70.0005 334.6824 0003247 266.2272  93.8553 15.69935706 10338,6737.218,91.724,361.271,356.895,0.0
55640.0,STARLINK-5069,PAYLOAD,2023-04-21 08:36:34,15.69939061,0.0003048,69.9994,333.967,273.8365,86.2483,9.5957e-05,0.00011347,0.0,0 STARLINK-5069,1 55640U 23021N   23111.35873620  .00011347  00000-0  95957-4 0  9995,2 55640  69.9994 333.9670 0003048 273.8365  86.2483 15.69939061 10672,6737.208,91.723,361.127,357.02,0.0
55640.0,STARLINK-5069,PAYLOAD,2023-04-21 20:50:35,15.69941683,0.000314,69.9992,332.5336,274.3502,85.7334,9.1597e-05,0.00010823,0.0,0 STARLINK-5069,1 55640U 23021N   23111.86846674  .00010823  00000-0  91597-4 0  9994,2 55640  69.9992 332.5336 0003140 274.3502  85.7334 15.69941683 10454,6737.201,91.723,361.181,356.95,0.0
55640.0,STARLINK-5069,PAYLOAD,2023-04-22 21:18:37,15.69926333,0.0003071,70.0004,329.6676,254.1526,105.9331,1.7139e-05,1.849e-05,0.0,0 STARLINK-5069,1 55640U 23021N   23112.88793627  .00001849  00000-0  17139-4 0  9994,2 55640  70.0004 329.6676 0003071 254.1526 105.9331 15.69926333 10615,6737.245,91.724,361.179,357.041,0.0
55640.0,STARLINK-5069,PAYLOAD,2023-04-23 14:07:54,15.69928554,0.0003323,70.0021,327.6965,262.5335,97.5483,3.482e-05,3.977e-05,0.0,0 STARLINK-5069,1 55640U 23021N   23113.58882080  .00003977  00000-0  34820-4 0  9994,2 55640  70.0021 327.6965 0003323 262.5335  97.5483 15.69928554 11021,6737.238,91.724,361.342,356.865,0.0
55640.0,STARLINK-5069,PAYLOAD,2023-04-23 23:18:24,15.69943043,0.0003439,70.0007,326.6211,260.9566,99.124,0.0001122,0.0001331,0.0,0 STARLINK-5069,1 55640U 23021N   23113.97111881  .00013310  00000-0  11220-3 0  9991,2 55640  70.0007 326.6211 0003439 260.9566  99.1240 15.69943043 10785,6737.197,91.723,361.379,356.745,0.0
55640.0,STARLINK-5069,PAYLOAD,2023-04-24 17:39:25,15.699523,0.0003295,70.0014,324.4709,250.4217,109.6623,9.5198e-05,0.00011263,0.0,0 STARLINK-5069,1 55640U 23021N   23114.73570958  .00011263  00000-0  95198-4 0  9992,2 55640  70.0014 324.4709 0003295 250.4217 109.6623 15.69952300 10900,6737.17,91.723,361.255,356.816,0.0
55640.0,STARLINK-5069,PAYLOAD,2023-04-24 23:46:26,15.6988138,0.0003649,70.0013,323.7546,263.0952,96.9828,-0.00017429,-0.00021081,0.0,0 STARLINK-5069,1 55640U 23021N   23114.99058934 -.00021081  00000-0 -17429-3 0  9996,2 55640  70.0013 323.7546 0003649 263.0952  96.9828 15.69881380 10947,6737.373,91.727,361.697,356.78,0.0
55640.0,STARLINK-5069,PAYLOAD,2023-04-25 16:35:45,15.69873135,0.0004176,69.9993,321.7813,269.8011,90.2707,-1.1521e-05,-1.595e-05,0.0,0 STARLINK-5069,1 55640U 23021N   23115.69149847 -.00001595  00000-0 -11521-4 0  9994,2 55640  69.9993 321.7813 0004176 269.8011  90.2707 15.69873135 11057,6737.397,91.727,362.075,356.448,0.0
55640.0,STARLINK-5069,PAYLOAD,2023-04-26 01:46:16,15.69928709,0.0003786,70.0013,320.7088,265.4579,94.6184,0.00017879,0.00021346,0.0,0 STARLINK-5069,1 55640U 23021N   23116.07379824  .00021346  00000-0  17879-3 0  9992,2 55640  70.0013 320.7088 0003786 265.4579  94.6184 15.69928709 11115,6737.238,91.724,361.654,356.552,0.0
55640.0,STARLINK-5069,PAYLOAD,2023-04-26 12:28:30,15.69960124,0.0004263,69.999,319.4518,264.7603,95.3107,0.00022682,0.00027194,0.0,0 STARLINK-5069,1 55640U 23021N   23116.51979925  .00027194  00000-0  22682-3 0  9994,2 55640  69.9990 319.4518 0004263 264.7603  95.3107 15.69960124 11480,6737.148,91.722,361.885,356.141,0.0
55640.0,STARLINK-5069,PAYLOAD,2023-04-26 14:00:40,15.68404746,0.0006731,69.9995,319.2744,40.6436,319.5261,-0.0082448,-0.00844224,0.0,0 STARLINK-5069,1 55640U 23021N   23116.58380210 -.00844224  00000-0 -82448-2 0  9992,2 55640  69.9995 319.2744 0006731  40.6436 319.5261 15.68404746 11496,6741.601,91.813,368.004,358.929,0.0
55640.0,STARLINK-5069,PAYLOAD,2023-04-27 06:00:02,15.69922463,0.0003828,70.0003,317.3997,269.0617,256.8365,-0.00014372,-0.00017459,0.0,0 STARLINK-5069,1 55640U 23021N   23117.25002315 -.00017459  00000-0 -14372-3 0  9998,2 55640  70.0003 317.3997 0003828 269.0617 256.8365 15.69922463 11298,6737.256,91.724,361.7,356.542,0.0
55640.0,STARLINK-5069,PAYLOAD,2023-04-27 12:56:23,15.70133275,0.0003707,70.0011,316.5877,259.4301,100.6477,0.00032497,0.00039389,0.0,0 STARLINK-5069,1 55640U 23021N   23117.53915853  .00039389  00000-0  32497-3 0  9991,2 55640  70.0011 316.5877 0003707 259.4301 100.6477 15.70133275 11640,6736.653,91.712,361.015,356.02,0.0
55640.0,STARLINK-5069,PAYLOAD,2023-04-27 20:35:08,15.69998829,0.0002846,70.0029,315.6924,258.1997,101.8879,-0.00022173,-0.00026868,0.0,0 STARLINK-5069,1 55640U 23021N   23117.85773414 -.00026868  00000-0 -22173-3 0  9991,2 55640  70.0029 315.6924 0002846 258.1997 101.8879 15.69998829 11384,6737.037,91.72,360.82,356.985,0.0
55640.0,STARLINK-5069,PAYLOAD,2023-04-27 23:38:47,15.6993282,0.0003657,70.0005,315.3344,272.6046,87.4732,7.6867e-05,9.043e-05,0.0,0 STARLINK-5069,1 55640U 23021N   23117.98527361  .00009043  00000-0  76867-4 0  9997,2 55640  70.0005 315.3344 0003657 272.6046  87.4732 15.69932820 11407,6737.226,91.724,361.555,356.627,0.0
55640.0,STARLINK-5069,PAYLOAD,2023-04-28 21:03:19,15.69926025,0.0003318,70.0018,312.8278,258.5914,101.4909,9.4049e-05,0.00011112,0.0,0 STARLINK-5069,1 55640U 23021N   23118.87730768  .00011112  00000-0  94049-4 0  9995,2 55640  70.0018 312.8278 0003318 258.5914 101.4909 15.69926025 11548,6737.246,91.724,361.346,356.875,0.0
55640.0,STARLINK-5069,PAYLOAD,2023-04-28 22:34:53,15.70320633,0.0004881,70.004,312.6477,269.1319,90.9317,0.0013846,0.00172599,0.0,0 STARLINK-5069,1 55640U 23021N   23118.94090100  .00172599  00000-0  13846-2 0  9993,2 55640  70.0040 312.6477 0004881 269.1319  90.9317 15.70320633 11556,6736.117,91.701,361.27,354.694,0.0
55640.0,STARLINK-5069,PAYLOAD,2023-04-29 13:52:35,15.69950194,0.0004095,70.0005,310.8553,265.0014,95.0714,0.00015666,0.00018689,0.0,0 STARLINK-5069,1 55640U 23021N   23119.57819048  .00018689  00000-0  15666-3 0  9995,2 55640  70.0005 310.8553 0004095 265.0014  95.0714 15.69950194 11653,6737.176,91.723,361.8,356.283,0.0
55640.0,STARLINK-5069,PAYLOAD,2023-04-30 06:00:00,15.69900726,0.0003724,70.0003,308.9652,269.1558,286.7102,0.0001081,0.00012793,0.0,0 STARLINK-5069,1 55640U 23021N   23120.25001157  .00012793  00000-0  10810-3 0  9992,2 55640  70.0003 308.9652 0003724 269.1558 286.7102 15.69900726 11763,6737.318,91.726,361.692,356.674,0.0
55640.0,STARLINK-5069,PAYLOAD,2023-04-30 14:00:01,15.69973073,0.0003745,70.0008,308.0284,266.2405,12.9254,-0.00065028,-0.00077848,0.0,0 STARLINK-5069,1 55640U 23021N   23120.58334491 -.00077848  00000-0 -65028-3 0  9993,2 55640  70.0008 308.0284 0003745 266.2405  12.9254 15.69973073  1303,6737.111,91.721,361.499,356.453,0.0
55640.0,STARLINK-5069,PAYLOAD,2023-05-01 01:02:39,15.70559256,0.0006817,69.9998,306.7342,282.8352,77.2082,0.0020771,0.00264635,0.0,0 STARLINK-5069,1 55640U 23021N   23121.04351473  .00264635  00000-0  20771-2 0  9999,2 55640  69.9998 306.7342 0006817 282.8352  77.2082 15.70559256 11888,6735.435,91.687,361.891,352.708,0.0
